{
  "norad_id": 57130,
  "name": "STARLINK-6172",
  "history": [
    {
      "epoch": "2026-03-28T14:35:57.971040",
      "apogee_km": 559.8966289980854,
      "perigee_km": 558.2788681867141,
      "latitude_deg": -41.55530647043746,
      "longitude_deg": -48.60225440002978,
      "semi_major_axis_km": 6937.2247485924,
      "eccentricity": 0.0001166,
      "inclination_deg": 43.0018,
      "raan_deg": 171.4668,
      "arg_perigee_deg": 272.5505,
      "mean_anomaly_deg": 87.5204,
      "mean_motion_rev_day": 15.02533331
    }
  ]
}