{"fetched_at":"2026-03-29T02:12:04Z","count":15717,"tles":[{"name":"STARLINK-6172","line1":"1 57130U 23090AF  26087.60830986  .00001142  00000+0  99621-4 0  9991","line2":"2 57130  43.0018 171.4668 0001166 272.5505  87.5204 15.02533331153075","category":"Starlink"}]}